{
  "type": "FeatureCollection",
  "features": [
    {
      "type": "Feature",
      "properties": {
        "norad_id": 29268,
        "name": "ARIRANG-2 (KOMPSAT-2)",
        "group": "resource",
        "lat": -49.66855786324762,
        "lon": -18.071930008582896,
        "alt_km": 686.0720660225516,
        "timestamp": "2025-12-08T13:49:31.449798+00:00",
        "meta_object_name": "ARIRANG-2 (KOMPSAT-2)",
        "meta_object_id": "2006-031A",
        "meta_epoch": "2025-12-08T06:27:45.695232",
        "meta_mean_motion": 14.64488035,
        "meta_eccentricity": 0.00136938,
        "meta_inclination": 97.827,
        "meta_ra_of_asc_node": 170.9604,
        "meta_arg_of_pericenter": 323.9849,
        "meta_mean_anomaly": 89.9798,
        "meta_ephemeris_type": 0,
        "meta_classification_type": "U",
        "meta_norad_cat_id": 29268,
        "meta_element_set_no": 999,
        "meta_rev_at_epoch": 3353,
        "meta_bstar": 0.0001550851,
        "meta_mean_motion_dot": 7.77e-06,
        "meta_mean_motion_ddot": 0,
        "tle_line1": "1 29268U 06031A   25342.26927888  .00000777  00000+0  15509-3 0  9996",
        "tle_line2": "2 29268  97.8270 170.9604 0013693 323.9849  89.9798 14.64488035 33536"
      },
      "geometry": {
        "type": "Point",
        "coordinates": [
          -18.071930008582896,
          -49.66855786324762
        ]
      }
    },
    {
      "type": "Feature",
      "properties": {
        "norad_id": 29709,
        "name": "LAPAN-TUBSAT",
        "group": "resource",
        "lat": -27.846352379001743,
        "lon": 148.31863972579933,
        "alt_km": 622.3149368085114,
        "timestamp": "2025-12-08T13:49:31.449809+00:00",
        "meta_object_name": "LAPAN-TUBSAT",
        "meta_object_id": "2007-001A",
        "meta_epoch": "2025-12-08T06:25:38.720064",
        "meta_mean_motion": 14.85660628,
        "meta_eccentricity": 0.00136481,
        "meta_inclination": 98.1253,
        "meta_ra_of_asc_node": 332.3325,
        "meta_arg_of_pericenter": 87.5653,
        "meta_mean_anomaly": 272.7124,
        "meta_ephemeris_type": 0,
        "meta_classification_type": "U",
        "meta_norad_cat_id": 29709,
        "meta_element_set_no": 999,
        "meta_rev_at_epoch": 2280,
        "meta_bstar": 0.00015479269,
        "meta_mean_motion_dot": 1.286e-05,
        "meta_mean_motion_ddot": 0,
        "tle_line1": "1 29709U 07001A   25342.26780926  .00001286  00000+0  15479-3 0  9996",
        "tle_line2": "2 29709  98.1253 332.3325 0013648  87.5653 272.7124 14.85660628 22807"
      },
      "geometry": {
        "type": "Point",
        "coordinates": [
          148.31863972579933,
          -27.846352379001743
        ]
      }
    },
    {
      "type": "Feature",
      "properties": {
        "norad_id": 31113,
        "name": "HAIYANG-1B",
        "group": "resource",
        "lat": -11.951937898830474,
        "lon": 145.24876249624006,
        "alt_km": 801.0787826800024,
        "timestamp": "2025-12-08T13:49:31.449820+00:00",
        "meta_object_name": "HAIYANG-1B",
        "meta_object_id": "2007-010A",
        "meta_epoch": "2025-12-08T04:32:28.973472",
        "meta_mean_motion": 14.30962551,
        "meta_eccentricity": 0.00144438,
        "meta_inclination": 98.3309,
        "meta_ra_of_asc_node": 326.6554,
        "meta_arg_of_pericenter": 50.6375,
        "meta_mean_anomaly": 309.6086,
        "meta_ephemeris_type": 0,
        "meta_classification_type": "U",
        "meta_norad_cat_id": 31113,
        "meta_element_set_no": 999,
        "meta_rev_at_epoch": 97331,
        "meta_bstar": 9.3462149e-05,
        "meta_mean_motion_dot": 2.04e-06,
        "meta_mean_motion_ddot": 0,
        "tle_line1": "1 31113U 07010A   25342.18922423  .00000204  00000+0  93462-4 0  9997",
        "tle_line2": "2 31113  98.3309 326.6554 0014443  50.6375 309.6086 14.30962551973317"
      },
      "geometry": {
        "type": "Point",
        "coordinates": [
          145.24876249624006,
          -11.951937898830474
        ]
      }
    },
    {
      "type": "Feature",
      "properties": {
        "norad_id": 31598,
        "name": "COSMO-SKYMED 1",
        "group": "resource",
        "lat": 13.021760950070004,
        "lon": 166.1119259603797,
        "alt_km": 581.0521439746071,
        "timestamp": "2025-12-08T13:49:31.449830+00:00",
        "meta_object_name": "COSMO-SKYMED 1",
        "meta_object_id": "2007-023A",
        "meta_epoch": "2025-12-08T05:44:20.076000",
        "meta_mean_motion": 14.95712558,
        "meta_eccentricity": 0.00010648,
        "meta_inclination": 97.8834,
        "meta_ra_of_asc_node": 167.6093,
        "meta_arg_of_pericenter": 80.8262,
        "meta_mean_anomaly": 279.3079,
        "meta_ephemeris_type": 0,
        "meta_classification_type": "U",
        "meta_norad_cat_id": 31598,
        "meta_element_set_no": 999,
        "meta_rev_at_epoch": 123,
        "meta_bstar": 0.00046850266,
        "meta_mean_motion_dot": 5.159e-05,
        "meta_mean_motion_ddot": 0,
        "tle_line1": "1 31598U 07023A   25342.23912125  .00005159  00000+0  46850-3 0  9994",
        "tle_line2": "2 31598  97.8834 167.6093 0001064  80.8262 279.3079 14.95712558  1236"
      },
      "geometry": {
        "type": "Point",
        "coordinates": [
          166.1119259603797,
          13.021760950070004
        ]
      }
    },
    {
      "type": "Feature",
      "properties": {
        "norad_id": 31698,
        "name": "TERRASAR-X",
        "group": "resource",
        "lat": 38.41070706850522,
        "lon": -17.93472356513479,
        "alt_km": 504.76315034574054,
        "timestamp": "2025-12-08T13:49:31.449841+00:00",
        "meta_object_name": "TERRASAR-X",
        "meta_object_id": "2007-026A",
        "meta_epoch": "2025-12-07T13:56:33.832032",
        "meta_mean_motion": 15.19154381,
        "meta_eccentricity": 0.0001715,
        "meta_inclination": 97.445,
        "meta_ra_of_asc_node": 347.036,
        "meta_arg_of_pericenter": 88.3312,
        "meta_mean_anomaly": 271.8119,
        "meta_ephemeris_type": 0,
        "meta_classification_type": "U",
        "meta_norad_cat_id": 31698,
        "meta_element_set_no": 999,
        "meta_rev_at_epoch": 2413,
        "meta_bstar": 0.0001437554,
        "meta_mean_motion_dot": 2.953e-05,
        "meta_mean_motion_ddot": 0,
        "tle_line1": "1 31698U 07026A   25341.58094713  .00002953  00000+0  14376-3 0  9996",
        "tle_line2": "2 31698  97.4450 347.0360 0001715  88.3312 271.8119 15.19154381 24137"
      },
      "geometry": {
        "type": "Point",
        "coordinates": [
          -17.93472356513479,
          38.41070706850522
        ]
      }
    },
    {
      "type": "Feature",
      "properties": {
        "norad_id": 32060,
        "name": "WORLDVIEW-1 (WV-1)",
        "group": "resource",
        "lat": -41.53027214296956,
        "lon": 106.7119716355578,
        "alt_km": 499.1209847869741,
        "timestamp": "2025-12-08T13:49:31.449851+00:00",
        "meta_object_name": "WORLDVIEW-1 (WV-1)",
        "meta_object_id": "2007-041A",
        "meta_epoch": "2025-12-08T07:42:29.723904",
        "meta_mean_motion": 15.24578155,
        "meta_eccentricity": 7.846e-05,
        "meta_inclination": 97.3843,
        "meta_ra_of_asc_node": 99.8651,
        "meta_arg_of_pericenter": 102.3304,
        "meta_mean_anomaly": 257.8022,
        "meta_ephemeris_type": 0,
        "meta_classification_type": "U",
        "meta_norad_cat_id": 32060,
        "meta_element_set_no": 999,
        "meta_rev_at_epoch": 1380,
        "meta_bstar": 0.00043298177,
        "meta_mean_motion_dot": 0.00010604,
        "meta_mean_motion_ddot": 0,
        "tle_line1": "1 32060U 07041A   25342.32117736  .00010604  00000+0  43298-3 0  9998",
        "tle_line2": "2 32060  97.3843  99.8651 0000784 102.3304 257.8022 15.24578155 13808"
      },
      "geometry": {
        "type": "Point",
        "coordinates": [
          106.7119716355578,
          -41.53027214296956
        ]
      }
    },
    {
      "type": "Feature",
      "properties": {
        "norad_id": 32289,
        "name": "YAOGAN-3",
        "group": "resource",
        "lat": -48.53744357101673,
        "lon": 18.206554833049026,
        "alt_km": 605.9078127804951,
        "timestamp": "2025-12-08T13:49:31.449863+00:00",
        "meta_object_name": "YAOGAN-3",
        "meta_object_id": "2007-055A",
        "meta_epoch": "2025-12-08T07:35:52.786752",
        "meta_mean_motion": 14.8982712,
        "meta_eccentricity": 0.00014261,
        "meta_inclination": 97.8368,
        "meta_ra_of_asc_node": 8.9815,
        "meta_arg_of_pericenter": 76.2562,
        "meta_mean_anomaly": 283.8815,
        "meta_ephemeris_type": 0,
        "meta_classification_type": "U",
        "meta_norad_cat_id": 32289,
        "meta_element_set_no": 999,
        "meta_rev_at_epoch": 97743,
        "meta_bstar": 0.00039894622,
        "meta_mean_motion_dot": 3.776e-05,
        "meta_mean_motion_ddot": 0,
        "tle_line1": "1 32289U 07055A   25342.31658318  .00003776  00000+0  39895-3 0  9991",
        "tle_line2": "2 32289  97.8368   8.9815 0001426  76.2562 283.8815 14.89827120977436"
      },
      "geometry": {
        "type": "Point",
        "coordinates": [
          18.206554833049026,
          -48.53744357101673
        ]
      }
    }
  ]
}